     2.10           NAVIGATION                              RINEX VERSION / TYPE
fic2rin                                 08/17/2008 02:01:32 PGM / RUN BY / DATE
                                                            END OF HEADER
 7 08  8 16 21 59 44.0  .913767144084D-05  .386535248253D-11  .000000000000D+00
     .200000000000D+02  .272500000000D+02  .481520057243D-08  .139486688992D+00
     .142119824886D-05  .208999100141D-02  .127591192722D-05  .515369629097D+04
     .597584000000D+06  .260770320892D-07  .159786463126D+01  .279396772385D-07
     .963126432139D+00  .353968750000D+03  .267287648785D+01 -.853642700502D-08
     .202865593023D-09  .100000000000D+01  .149200000000D+04  .000000000000D+00
     .240000000000D+01  .000000000000D+00 -.107102096081D-07  .200000000000D+02
     .597006000000D+06  .400000000000D+01
25 08  8 16 23 58 40.0 -.227761920542D-03 -.239879227593D-10  .000000000000D+00
     .129000000000D+03  .464375000000D+02  .475805533496D-08 -.830536866463D+00
     .245682895184D-05  .115988207981D-01  .194273889065D-05  .515369258308D+04
     .604720000000D+06 -.201165676117D-06  .150268696890D+01  .298023223877D-07
     .965582534080D+00  .348531250000D+03 -.124864668013D+01 -.867357557495D-08
     .371444043564D-09  .100000000000D+01  .149200000000D+04  .000000000000D+00
     .240000000000D+01  .000000000000D+00 -.745058059692D-08  .129000000000D+03
     .597606000000D+06  .400000000000D+01
 4 08  8 16 23 59 44.0 -.144558493048D-03 -.104591890704D-10  .000000000000D+00
     .290000000000D+02  .151875000000D+02  .553451624910D-08 -.703891846458D+00
     .804662704468D-06  .821265031118D-02  .390782952309D-05  .515355974579D+04
     .604784000000D+06  .145286321640D-06 -.153501050959D+01  .596046447754D-07
     .941724098634D+00  .293500000000D+03  .388592771592D+00 -.864428864075D-08
     .521450291926D-10  .100000000000D+01  .149200000000D+04  .000000000000D+00
     .240000000000D+01  .000000000000D+00 -.605359673500D-08  .290000000000D+02
     .597606000000D+06  .400000000000D+01
 7 08  8 16 23 59 44.0  .916561111808D-05  .386535248253D-11  .000000000000D+00
     .210000000000D+02  .313750000000D+02  .477019869792D-08  .118933490048D+01
     .162050127983D-05  .209066830575D-02  .106915831566D-05  .515369807816D+04
     .604784000000D+06  .745058059692D-08  .159780314774D+01  .484287738800D-07
     .963127855558D+00  .359593750000D+03  .267319692250D+01 -.854035574010D-08
     .196436753808D-09  .100000000000D+01  .149200000000D+04  .000000000000D+00
     .240000000000D+01  .000000000000D+00 -.107102096081D-07  .210000000000D+02
     .597606000000D+06  .400000000000D+01
15 08  8 16 23 59 44.0 -.161180738360D-03 -.648014975013D-11  .000000000000D+00
     .320000000000D+02  .999375000000D+02  .424196240905D-08 -.223711109625D+01
     .520981848240D-05  .765896984376D-03  .984594225883D-05  .515369475174D+04
     .604784000000D+06  .391155481339D-07  .538262899165D+00  .931322574615D-08
     .957731649619D+00  .188562500000D+03 -.123312125720D+01 -.795390274055D-08
     .162506769059D-09  .100000000000D+01  .149200000000D+04  .000000000000D+00
     .240000000000D+01  .000000000000D+00 -.977888703346D-08  .320000000000D+02
     .597606000000D+06  .400000000000D+01
16 08  8 16 23 59 44.0  .111828092486D-03 -.193267624127D-11  .000000000000D+00
     .500000000000D+01 -.124625000000D+03  .431589406003D-08 -.133647964085D+01
    -.677444040775D-05  .473787100054D-02  .889971852303D-05  .515365979958D+04
     .604784000000D+06 -.223517417908D-07  .266455809866D+01 -.521540641785D-07
     .966448264129D+00  .211500000000D+03 -.421656741936D+00 -.808212236712D-08
    -.211080220910D-09  .100000000000D+01  .149200000000D+04  .000000000000D+00
     .240000000000D+01  .000000000000D+00 -.977888703346D-08  .500000000000D+01
     .597606000000D+06  .400000000000D+01
 2 08  8 17  0  0  0.0  .194373074919D-03 -.272848410532D-11  .000000000000D+00
     .850000000000D+02  .183437500000D+02  .548558563952D-08  .281403344747D+01
     .102818012238D-05  .875058758538D-02  .402703881264D-05  .515375678825D+04
     .000000000000D+00 -.819563865662D-07 -.167419057534D+01  .234693288803D-06
     .942440850959D+00  .292812500000D+03  .262584507454D+01 -.848749639544D-08
     .850035407387D-10  .100000000000D+01  .149300000000D+04  .000000000000D+00
     .240000000000D+01  .000000000000D+00 -.172294676304D-07  .850000000000D+02
     .597606000000D+06  .400000000000D+01
 3 08  8 17  0  0  0.0  .270645599812D-03  .522959453519D-11  .000000000000D+00
     .880000000000D+02 -.493750000000D+01  .513771400641D-08  .246978887945D+01
    -.247731804848D-06  .109813015442D-01  .128820538521D-04  .515370133209D+04
     .000000000000D+00 -.558793544769D-07 -.281892788567D+01 -.169500708580D-06
     .926379849336D+00  .111375000000D+03  .835043692819D+00 -.803319175754D-08
     .532522181686D-09  .100000000000D+01  .149300000000D+04  .000000000000D+00
     .340000000000D+01  .000000000000D+00 -.419095158577D-08  .880000000000D+02
     .597606000000D+06  .400000000000D+01
 5 08  8 17  0  0  0.0  .543129630387D-03 -.267618815997D-09  .277555756156D-16
     .990000000000D+02 -.112187500000D+03  .502342353147D-08 -.108171194386D+01
    -.556744635105D-05  .919941079337D-02  .686198472977D-05  .515371058273D+04
     .000000000000D+00 -.316649675369D-07  .243241038041D+01  .199303030968D-06
     .943535559872D+00  .240781250000D+03  .125974239442D+01 -.845535219936D-08
    -.226438003480D-09  .100000000000D+01  .149300000000D+04  .000000000000D+00
     .485000000000D+01  .630000000000D+02 -.419095158577D-08  .990000000000D+02
     .597606000000D+06  .400000000000D+01
 6 08  8 17  0  0  0.0  .167200807482D-03  .909494701773D-12  .000000000000D+00
     .270000000000D+02  .150625000000D+02  .507271129879D-08 -.119930952360D+01
     .933185219765D-06  .582288659643D-02  .122450292110D-04  .515372657013D+04
     .000000000000D+00 -.912696123123D-07 -.275366891393D+01  .150874257088D-06
     .933886607189D+00  .131687500000D+03 -.160174980228D+01 -.821677083292D-08
     .561094800422D-09  .100000000000D+01  .149300000000D+04  .000000000000D+00
     .240000000000D+01  .000000000000D+00 -.465661287308D-08  .270000000000D+02
     .597606000000D+06  .400000000000D+01
 8 08  8 17  0  0  0.0 -.166124198586D-03 -.147792889038D-11  .000000000000D+00
     .520000000000D+02  .168437500000D+02  .435196699118D-08  .384405379250D+00
     .841915607452D-06  .104645875981D-01  .143796205521D-05  .515372055054D+04
     .000000000000D+00  .149011611938D-06  .153188730676D+01 -.372529029846D-08
     .984295273678D+00  .361375000000D+03  .289320146395D+01 -.843820862812D-08
     .157149403046D-09  .100000000000D+01  .149300000000D+04  .000000000000D+00
     .340000000000D+01  .000000000000D+00 -.372529029846D-08  .520000000000D+02
     .597606000000D+06  .400000000000D+01
 9 08  8 17  0  0  0.0  .103656202555D-04  .181898940355D-11  .000000000000D+00
     .550000000000D+02  .316562500000D+02  .457161899771D-08  .649283420118D-02
     .154599547386D-05  .201791130239D-01  .217556953430D-05  .515365942001D+04
     .000000000000D+00 -.311061739922D-06  .144128061240D+01  .109896063805D-06
     .972142476722D+00  .346843750000D+03  .143327621517D+01 -.871250576798D-08
     .182507602174D-09  .100000000000D+01  .149300000000D+04  .000000000000D+00
     .240000000000D+01  .000000000000D+00 -.558793544769D-08  .550000000000D+02
     .597606000000D+06  .400000000000D+01
10 08  8 17  0  0  0.0 -.390969216824D-05 -.341060513165D-12  .000000000000D+00
     .960000000000D+02 -.401250000000D+02  .440875507092D-08 -.257304331985D+01
    -.205449759960D-05  .797902862541D-02  .990182161331D-05  .515368720818D+04
     .000000000000D+00 -.372529029846D-08 -.591484215840D+00 -.949949026108D-07
     .962558849183D+00  .189093750000D+03  .557126393933D+00 -.785139847083D-08
    -.596810573842D-09  .100000000000D+01  .149300000000D+04  .000000000000D+00
     .340000000000D+01  .000000000000D+00 -.232830643654D-08  .960000000000D+02
     .597606000000D+06  .400000000000D+01
11 08  8 17  0  0  0.0  .215414911509D-04 -.682121026330D-12  .000000000000D+00
     .750000000000D+02  .407187500000D+02  .685492839243D-08  .813023980089D+00
     .234320759773D-05  .831324094906D-02  .418536365032D-05  .515363621902D+04
     .000000000000D+00  .260770320892D-07 -.186010824340D+01  .614672899246D-07
     .890374955759D+00  .257812500000D+03  .603640670091D+00 -.938539093920D-08
     .184650548579D-09  .100000000000D+01  .149300000000D+04  .000000000000D+00
     .340000000000D+01  .000000000000D+00 -.116415321827D-07  .750000000000D+02
     .597606000000D+06  .400000000000D+01
12 08  8 17  0  0  0.0 -.354298856109D-03  .113686837722D-11  .000000000000D+00
     .550000000000D+02 -.112500000000D+03  .442732727309D-08  .124744644362D+01
    -.580772757530D-05  .321470655035D-02  .779330730438D-05  .515355308533D+04
     .000000000000D+00  .763684511185D-07  .252764266228D+01 -.353902578354D-07
     .964796881240D+00  .235593750000D+03 -.876699411764D+00 -.804926385558D-08
    -.206794328100D-09  .100000000000D+01  .149300000000D+04  .000000000000D+00
     .240000000000D+01  .000000000000D+00 -.116415321827D-07  .550000000000D+02
     .597606000000D+06  .400000000000D+01
13 08  8 17  0  0  0.0  .267885625362D-03  .136424205266D-11  .000000000000D+00
     .750000000000D+02  .113812500000D+03  .333406744872D-08 -.293135501406D+01
     .602751970291D-05  .376933114603D-02  .108722597361D-04  .515359799957D+04
     .000000000000D+00 -.186264514923D-08  .479184305733D+00 -.279396772385D-07
     .995698332432D+00  .187843750000D+03  .153548249377D+01 -.744316718065D-08
     .253224833545D-09  .100000000000D+01  .149300000000D+04  .000000000000D+00
     .240000000000D+01  .000000000000D+00 -.107102096081D-07  .750000000000D+02
     .597606000000D+06  .400000000000D+01
